{
  "norad_id": 66246,
  "name": "STARLINK-35434",
  "history": [
    {
      "epoch": "2026-03-28T16:24:37.948320",
      "apogee_km": 476.1618411657464,
      "perigee_km": 474.2127557352678,
      "latitude_deg": 38.3742981924716,
      "longitude_deg": 150.24216479994357,
      "semi_major_axis_km": 6853.324298450507,
      "eccentricity": 0.0001422,
      "inclination_deg": 53.1597,
      "raan_deg": 195.7392,
      "arg_perigee_deg": 51.9165,
      "mean_anomaly_deg": 308.1963,
      "mean_motion_rev_day": 15.30209301
    }
  ]
}